{"type":"FeatureCollection","features":[{"type":"Feature","properties":{"nombre":"Boulevard Lázaro Cárdenas","l":0.3621},"geometry":{"type":"MultiLineString","coordinates":[[[-115.34536,32.57227],[-115.34668,32.57378],[-115.34698,32.57825]],[[-115.41839,32.625],[-115.43059,32.62491]],[[-115.41333,32.625],[-115.41783,32.62498]],[[-115.40391,32.62173],[-115.39336,32.61476]],[[-115.3911,32.61351],[-115.40468,32.6224]],[[-115.35851,32.59175],[-115.34804,32.58482],[-115.34743,32.58321]],[[-115.51946,32.62172],[-115.52878,32.62177]],[[-115.52878,32.62177],[-115.53323,32.62199]],[[-115.34714,32.58321],[-115.34759,32.58476],[-115.35225,32.5879]],[[-115.44168,32.62458],[-115.43577,32.62461]],[[-115.45575,32.6248],[-115.4611,32.62412]],[[-115.56039,32.62189],[-115.5341,32.6219]],[[-115.43411,32.62464],[-115.4249,32.62471]],[[-115.46458,32.6237],[-115.45779,32.62442]],[[-115.47906,32.62388],[-115.48804,32.62389]],[[-115.53347,32.622],[-115.56039,32.62219]],[[-115.5057,32.62395],[-115.51221,32.62183],[-115.51946,32.62172]],[[-115.47906,32.62368],[-115.47294,32.62369]],[[-115.52877,32.62165],[-115.52464,32.62162]],[[-115.5328,32.62182],[-115.52877,32.62165]],[[-115.34698,32.57825],[-115.34714,32.58298]],[[-115.57395,32.62195],[-115.56039,32.62189]],[[-115.56039,32.62219],[-115.57394,32.62223]],[[-115.3827,32.60771],[-115.37214,32.60073]],[[-115.37347,32.6019],[-115.3841,32.60891]],[[-115.38699,32.61056],[-115.3827,32.60771]],[[-115.3653,32.5962],[-115.36171,32.59384]],[[-115.35944,32.59265],[-115.36512,32.59639]],[[-115.37214,32.60073],[-115.36872,32.59847]],[[-115.36519,32.59644],[-115.37196,32.60089]],[[-115.39336,32.61476],[-115.38761,32.61097]],[[-115.48919,32.6237],[-115.48004,32.62369]],[[-115.42315,32.62473],[-115.4187,32.62478]],[[-115.35299,32.58839],[-115.35851,32.59203]],[[-115.46731,32.62386],[-115.47177,32.62387]],[[-115.52413,32.62163],[-115.51946,32.62161]],[[-115.51946,32.62161],[-115.51215,32.62163],[-115.50929,32.6227]],[[-115.43434,32.62483],[-115.44177,32.62473]],[[-115.41155,32.62486],[-115.40843,32.62446],[-115.40563,32.62283]],[[-115.40593,32.62322],[-115.40865,32.62477],[-115.41178,32.62505]],[[-115.47179,32.62373],[-115.4673,32.62372]]]}},{"type":"Feature","properties":{"nombre":"Libramiento de Mexicali (Cuota)","l":0.4295},"geometry":{"type":"MultiLineString","coordinates":[[[-115.67992,32.59285],[-115.66783,32.58705],[-115.58506,32.52759],[-115.58145,32.52586],[-115.57596,32.52526],[-115.52766,32.52779],[-115.48641,32.53301]],[[-115.48645,32.53306],[-115.52593,32.52796],[-115.57591,32.52536],[-115.58096,32.52581],[-115.58538,32.52794],[-115.66745,32.58688],[-115.67989,32.5929]]]}},{"type":"Feature","properties":{"nombre":"Carretera Mexicali–Tijuana","l":0.261},"geometry":{"type":"MultiLineString","coordinates":[[[-115.50627,32.61917],[-115.51025,32.6163]],[[-115.61686,32.59113],[-115.65613,32.60198]],[[-115.52013,32.61118],[-115.54836,32.59655]],[[-115.56826,32.58627],[-115.57857,32.58111],[-115.58134,32.58089],[-115.58432,32.58174]],[[-115.5844,32.58162],[-115.5813,32.58074],[-115.57868,32.58091],[-115.56849,32.586]],[[-115.51567,32.6135],[-115.52013,32.61118]],[[-115.54494,32.59816],[-115.52842,32.60668]],[[-115.61459,32.59031],[-115.59934,32.58608]],[[-115.56849,32.586],[-115.55986,32.59047]],[[-115.59164,32.58407],[-115.61613,32.59093]],[[-115.62595,32.59347],[-115.61513,32.59046]],[[-115.51087,32.61578],[-115.50663,32.61838]],[[-115.51098,32.61594],[-115.51567,32.6135]],[[-115.51552,32.61338],[-115.51146,32.61547]],[[-115.59834,32.5858],[-115.59168,32.58395]],[[-115.55914,32.59084],[-115.55431,32.59334]],[[-115.55921,32.59096],[-115.56826,32.58627]],[[-115.55543,32.59289],[-115.55921,32.59096]],[[-115.5274,32.60721],[-115.52152,32.61024]],[[-115.55355,32.59373],[-115.54561,32.59782]],[[-115.54904,32.59619],[-115.55431,32.59349]]]}},{"type":"Feature","properties":{"nombre":"Avenida Venustiano Carranza","l":0.1748},"geometry":{"type":"MultiLineString","coordinates":[[[-115.4062,32.58863],[-115.40466,32.59177],[-115.40493,32.59309]],[[-115.39936,32.64662],[-115.39937,32.649],[-115.40067,32.65108]],[[-115.40085,32.65107],[-115.39957,32.64911],[-115.39953,32.64729]],[[-115.40638,32.58856],[-115.41003,32.57963]],[[-115.40531,32.61432],[-115.40545,32.62059]],[[-115.40555,32.62065],[-115.40538,32.60957]],[[-115.40493,32.59309],[-115.40531,32.61432]],[[-115.39951,32.62985],[-115.39941,32.63695]],[[-115.39955,32.63493],[-115.39964,32.63]],[[-115.39943,32.6379],[-115.39936,32.64662]],[[-115.40281,32.65806],[-115.40097,32.65629],[-115.40084,32.65319]],[[-115.40067,32.65108],[-115.4007,32.65609],[-115.40281,32.65806]],[[-115.41319,32.57352],[-115.41805,32.56353],[-115.42037,32.5623]],[[-115.42034,32.56221],[-115.41801,32.56332],[-115.41303,32.57346]],[[-115.41303,32.57346],[-115.40989,32.57957]],[[-115.41003,32.57963],[-115.41319,32.57352]],[[-115.39964,32.63],[-115.39989,32.62786],[-115.40128,32.62622]],[[-115.40537,32.6091],[-115.40505,32.59427]],[[-115.40989,32.57957],[-115.40799,32.58321],[-115.40784,32.58522],[-115.40653,32.58793]],[[-115.40431,32.62284],[-115.3999,32.62752],[-115.39951,32.62985]]]}},{"type":"Feature","properties":{"nombre":"Calzada Manuel Gómez Morín","l":0.1261},"geometry":{"type":"MultiLineString","coordinates":[[[-115.43791,32.60941],[-115.43153,32.61378],[-115.42614,32.61393]],[[-115.41985,32.61763],[-115.41422,32.62715],[-115.41392,32.63444]],[[-115.41397,32.64575],[-115.41398,32.63882]],[[-115.41401,32.63775],[-115.41429,32.63197]],[[-115.42,32.61763],[-115.42201,32.61466],[-115.42543,32.61404]],[[-115.4246,32.61393],[-115.42177,32.61465],[-115.41985,32.61763]],[[-115.41202,32.65503],[-115.41205,32.65934],[-115.41367,32.66192]],[[-115.41728,32.66834],[-115.41706,32.66663],[-115.41457,32.66294]],[[-115.53366,32.65364],[-115.53367,32.64664]],[[-115.53347,32.64663],[-115.53346,32.65065]],[[-115.41572,32.62448],[-115.41968,32.61813]],[[-115.41387,32.63507],[-115.41367,32.64559],[-115.41312,32.64714]],[[-115.41321,32.66096],[-115.41219,32.6593],[-115.41212,32.65659]],[[-115.41387,32.6622],[-115.41703,32.66739]],[[-115.42611,32.61404],[-115.43139,32.61399],[-115.43398,32.61227]],[[-115.41431,32.63081],[-115.41439,32.62754],[-115.4151,32.62594]]]}},{"type":"Feature","properties":{"nombre":"Calzada Rodolfo Sánchez Taboada","l":0.154},"geometry":{"type":"MultiLineString","coordinates":[[[-115.42552,32.60147],[-115.42071,32.59867],[-115.41214,32.59543]],[[-115.39942,32.59118],[-115.41756,32.59754],[-115.42508,32.60143]],[[-115.34919,32.57351],[-115.35934,32.57737]],[[-115.35942,32.57722],[-115.34928,32.57335]],[[-115.36655,32.57973],[-115.3602,32.5775]],[[-115.35934,32.57737],[-115.36652,32.57988]],[[-115.3765,32.5833],[-115.36716,32.57995]],[[-115.42549,32.60171],[-115.43087,32.6061]],[[-115.4317,32.60655],[-115.42628,32.60199]],[[-115.3892,32.58756],[-115.39435,32.5894]],[[-115.43154,32.60668],[-115.43536,32.61004]],[[-115.36652,32.57988],[-115.37559,32.58311]],[[-115.37654,32.58345],[-115.38054,32.58484]],[[-115.38211,32.58521],[-115.37787,32.58376]],[[-115.39558,32.58963],[-115.39039,32.58781]],[[-115.41114,32.59507],[-115.40558,32.59313]],[[-115.40486,32.59285],[-115.39985,32.5911]],[[-115.43622,32.61053],[-115.4317,32.60655]]]}},{"type":"Feature","properties":{"nombre":"Calzada Héctor Terán Terán","l":0.1496},"geometry":{"type":"MultiLineString","coordinates":[[[-115.49342,32.61338],[-115.50435,32.61335]],[[-115.47274,32.60891],[-115.46652,32.60669],[-115.44967,32.60575]],[[-115.44861,32.60572],[-115.44237,32.60525],[-115.4387,32.60343],[-115.43579,32.60388]],[[-115.43584,32.60399],[-115.43866,32.60358],[-115.44233,32.60541],[-115.44748,32.60582]],[[-115.50523,32.61321],[-115.49463,32.61323]],[[-115.44873,32.60585],[-115.46156,32.60654]],[[-115.47906,32.61125],[-115.47325,32.60911]],[[-115.46291,32.60661],[-115.467,32.60695],[-115.47119,32.60849]],[[-115.47274,32.60906],[-115.48619,32.61317],[-115.49207,32.61338]],[[-115.50851,32.61335],[-115.51567,32.6135]],[[-115.51582,32.61343],[-115.50912,32.61321]],[[-115.48861,32.61322],[-115.48133,32.61181]],[[-115.43154,32.60668],[-115.43435,32.60442],[-115.43584,32.60399]],[[-115.43579,32.60388],[-115.43143,32.60659]]]}},{"type":"Feature","properties":{"nombre":"Calzada Independencia","l":0.142},"geometry":{"type":"MultiLineString","coordinates":[[[-115.44838,32.63723],[-115.44117,32.63908],[-115.42157,32.63902]],[[-115.49545,32.64425],[-115.48213,32.6442]],[[-115.47055,32.63818],[-115.47597,32.6425]],[[-115.39219,32.63792],[-115.4176,32.63794],[-115.41965,32.63876]],[[-115.45579,32.63616],[-115.46097,32.6364]],[[-115.46606,32.63692],[-115.47041,32.63807]],[[-115.47041,32.63807],[-115.46601,32.63681]],[[-115.42157,32.63902],[-115.41768,32.63772],[-115.39219,32.6378]],[[-115.39219,32.6378],[-115.3861,32.63781]],[[-115.38727,32.63793],[-115.39219,32.63792]],[[-115.50359,32.64424],[-115.49545,32.64425]],[[-115.45252,32.63615],[-115.44855,32.63719]]]}},{"type":"Feature","properties":{"nombre":"Boulevard Adolfo López Mateos","l":0.1043},"geometry":{"type":"MultiLineString","coordinates":[[[-115.48874,32.66147],[-115.47812,32.65642],[-115.4729,32.65097]],[[-115.44101,32.61509],[-115.44793,32.62102]],[[-115.4548,32.62593],[-115.45094,32.6233]],[[-115.45001,32.62271],[-115.45398,32.62543]],[[-115.4724,32.651],[-115.47563,32.65476],[-115.47903,32.65726],[-115.4895,32.66203]],[[-115.46679,32.63867],[-115.46475,32.63495]],[[-115.46471,32.6351],[-115.46668,32.6387]],[[-115.45034,32.62288],[-115.44147,32.61529]],[[-115.46899,32.64361],[-115.47149,32.64885]],[[-115.4729,32.65097],[-115.4693,32.64378]],[[-115.49503,32.66423],[-115.48874,32.66147]],[[-115.46918,32.64353],[-115.46698,32.63905]]]}},{"type":"Feature","properties":{"nombre":"Carretera Mexicali - San Felipe","l":0.1356},"geometry":{"type":"MultiLineString","coordinates":[[[-115.42838,32.58358],[-115.42233,32.5675]],[[-115.4221,32.56756],[-115.43107,32.59128]],[[-115.40942,32.53382],[-115.41757,32.55545]],[[-115.41768,32.55575],[-115.4221,32.56756]],[[-115.42233,32.5675],[-115.41784,32.55569]],[[-115.43403,32.5987],[-115.42861,32.58419]],[[-115.43129,32.59186],[-115.43325,32.59705]],[[-115.41773,32.55539],[-115.4094,32.53322]]]}},{"type":"Feature","properties":{"nombre":"Calzada Cetys","l":0.0976},"geometry":{"type":"MultiLineString","coordinates":[[[-115.36858,32.65304],[-115.37556,32.65307]],[[-115.36146,32.65301],[-115.36586,32.65302]],[[-115.38536,32.65297],[-115.37702,32.65293]],[[-115.40084,32.65319],[-115.40794,32.65335],[-115.41194,32.65455]],[[-115.36644,32.6529],[-115.36148,32.65285]],[[-115.41502,32.65622],[-115.42714,32.6628]],[[-115.37626,32.65307],[-115.38536,32.65312]],[[-115.39983,32.65303],[-115.3935,32.65298]],[[-115.38536,32.65312],[-115.39106,32.65315]],[[-115.39223,32.65297],[-115.38536,32.65297]],[[-115.39223,32.65315],[-115.40028,32.65318]],[[-115.41193,32.65442],[-115.40716,32.65311]],[[-115.42723,32.66276],[-115.42127,32.65947]]]}},{"type":"Feature","properties":{"nombre":"Boulevard Anáhuac","l":0.0522},"geometry":{"type":"MultiLineString","coordinates":[[[-115.47625,32.63189],[-115.47398,32.63375],[-115.473,32.63555]],[[-115.4731,32.63558],[-115.47409,32.63378],[-115.47635,32.63192]],[[-115.47834,32.60143],[-115.47908,32.61303]],[[-115.47923,32.6113],[-115.47836,32.59963]],[[-115.47922,32.61839],[-115.47923,32.61405]],[[-115.47907,32.61839],[-115.47906,32.62388]],[[-115.47922,32.62388],[-115.47923,32.61909]],[[-115.47907,32.61369],[-115.47908,32.61796]]]}},{"type":"Feature","properties":{"nombre":"Calzada Abelardo L. Rodriguez","l":0.0947},"geometry":{"type":"MultiLineString","coordinates":[[[-115.38769,32.66652],[-115.38053,32.66589],[-115.37608,32.66326],[-115.37499,32.66076],[-115.37621,32.65367]],[[-115.37607,32.65307],[-115.37475,32.66105],[-115.37552,32.66296],[-115.37724,32.66434]],[[-115.41125,32.67034],[-115.39645,32.67178],[-115.39488,32.67137],[-115.39345,32.6701]],[[-115.38769,32.66672],[-115.39108,32.66736],[-115.39322,32.67012]],[[-115.40312,32.67154],[-115.41133,32.67097]],[[-115.39345,32.6701],[-115.39138,32.66729],[-115.38796,32.66654]],[[-115.39322,32.67012],[-115.39422,32.67127],[-115.39615,32.672],[-115.40312,32.67154]],[[-115.37837,32.66498],[-115.38153,32.66633],[-115.38699,32.66667]]]}},{"type":"Feature","properties":{"nombre":"Calle Novena","l":0.0678},"geometry":{"type":"MultiLineString","coordinates":[[[-115.38749,32.62723],[-115.38747,32.6303],[-115.3859,32.63536]],[[-115.38769,32.6232],[-115.386,32.61486]],[[-115.38592,32.63847],[-115.38546,32.64102],[-115.37675,32.65078]],[[-115.38564,32.61365],[-115.38749,32.62153],[-115.3875,32.62618]],[[-115.37629,32.65292],[-115.37694,32.65077],[-115.38553,32.64118]],[[-115.3861,32.63515],[-115.38762,32.63053],[-115.38767,32.62802]]]}},{"type":"Feature","properties":{"nombre":"Boulevard Río Nuevo","l":0.0761},"geometry":{"type":"MultiLineString","coordinates":[[[-115.44809,32.60635],[-115.44814,32.6079],[-115.44984,32.60994],[-115.45892,32.61203],[-115.46052,32.61316]],[[-115.46128,32.61358],[-115.45895,32.61186],[-115.45012,32.60988],[-115.44814,32.60707]],[[-115.46845,32.62231],[-115.46166,32.61418]],[[-115.46154,32.61444],[-115.46841,32.62265]],[[-115.47852,32.62915],[-115.48238,32.6302]],[[-115.46925,32.62364],[-115.47341,32.6284],[-115.47735,32.62901]],[[-115.478,32.62882],[-115.4736,32.62817]],[[-115.4736,32.62817],[-115.4701,32.62431]]]}},{"type":"Feature","properties":{"nombre":"Boulevard Benito Juárez","l":0.0325},"geometry":{"type":"MultiLineString","coordinates":[[[-115.4408,32.61711],[-115.4433,32.62378]],[[-115.44929,32.63967],[-115.45082,32.64366]],[[-115.44393,32.62432],[-115.43993,32.61411]],[[-115.45234,32.64711],[-115.44871,32.63761]]]}},{"type":"Feature","properties":{"nombre":"South Clark Road","l":0.0908},"geometry":{"type":"MultiLineString","coordinates":[[[-115.55973,32.67932],[-115.55987,32.69428]],[[-115.55996,32.70895],[-115.56104,32.77062]],[[-115.55987,32.69454],[-115.55992,32.70866]]]}},{"type":"Feature","properties":{"nombre":"Avenida Cristóbal Colón","l":0.0819},"geometry":{"type":"MultiLineString","coordinates":[[[-115.41133,32.67097],[-115.46692,32.66697]],[[-115.48716,32.66549],[-115.49313,32.66507]],[[-115.46692,32.66697],[-115.48705,32.6655]]]}},{"type":"Feature","properties":{"nombre":"Calzada de los Presidentes","l":0.0554},"geometry":{"type":"MultiLineString","coordinates":[[[-115.49653,32.66213],[-115.49274,32.65788]],[[-115.4925,32.65796],[-115.49637,32.66248]],[[-115.48501,32.65023],[-115.48138,32.64802],[-115.48098,32.64496]],[[-115.48083,32.64432],[-115.48058,32.64671],[-115.48147,32.64849],[-115.48611,32.651],[-115.48822,32.65338]],[[-115.48901,32.65409],[-115.48726,32.65169],[-115.4853,32.65035]],[[-115.48884,32.65421],[-115.49216,32.65755]],[[-115.4828,32.63464],[-115.48186,32.6392]],[[-115.48113,32.64421],[-115.4829,32.63552]]]}},{"type":"Feature","properties":{"nombre":"Boulevard Islas Agrarias","l":0.0677},"geometry":{"type":"MultiLineString","coordinates":[[[-115.35984,32.61408],[-115.34986,32.61439]],[[-115.39154,32.61396],[-115.38656,32.61409]],[[-115.35985,32.61423],[-115.36928,32.61421]],[[-115.38586,32.61426],[-115.39226,32.61429]],[[-115.36928,32.61403],[-115.35984,32.61408]],[[-115.36928,32.61421],[-115.37759,32.61423]],[[-115.38269,32.61404],[-115.37758,32.61404]],[[-115.37759,32.61423],[-115.38183,32.61425]],[[-115.35003,32.61455],[-115.35985,32.61423]]]}},{"type":"Feature","properties":{"nombre":"Calzada Heroico Colegio Militar","l":0.0653},"geometry":{"type":"MultiLineString","coordinates":[[[-115.50567,32.63808],[-115.50555,32.62549]],[[-115.50529,32.62397],[-115.50554,32.63808]],[[-115.50523,32.61321],[-115.50529,32.61909]],[[-115.50608,32.6132],[-115.50615,32.60543]],[[-115.50605,32.60495],[-115.50592,32.6132]],[[-115.50613,32.5983],[-115.50603,32.60374]],[[-115.50611,32.60374],[-115.50613,32.5983]],[[-115.50556,32.61898],[-115.50546,32.6132]]]}},{"type":"Feature","properties":{"nombre":"Avenida San Pedro Mezquital","l":0.0673},"geometry":{"type":"MultiLineString","coordinates":[[[-115.27451,32.61415],[-115.3418,32.61412]]]}},{"type":"Feature","properties":{"nombre":"Calzada Castellón","l":0.0386},"geometry":{"type":"MultiLineString","coordinates":[[[-115.45478,32.61383],[-115.45221,32.61442],[-115.44199,32.61441],[-115.44093,32.61501]],[[-115.44101,32.61509],[-115.44201,32.61452],[-115.45,32.61452]],[[-115.45476,32.61395],[-115.45982,32.61369]],[[-115.46088,32.61358],[-115.45478,32.61383]],[[-115.4506,32.61452],[-115.45476,32.61395]]]}},{"type":"Feature","properties":{"nombre":"Calzada Laguna Xochimilco","l":0.0508},"geometry":{"type":"MultiLineString","coordinates":[[[-115.463,32.60346],[-115.45555,32.60269]],[[-115.4547,32.60279],[-115.4617,32.60363]],[[-115.48347,32.60477],[-115.48803,32.60467]],[[-115.47856,32.60461],[-115.47379,32.60439]],[[-115.47282,32.60457],[-115.48265,32.60478]],[[-115.46313,32.60377],[-115.47173,32.60448]],[[-115.47264,32.60429],[-115.46422,32.60356]]]}},{"type":"Feature","properties":{"nombre":"Carretera Mexicali-Progreso","l":0.0676},"geometry":{"type":"MultiLineString","coordinates":[[[-115.58393,32.58233],[-115.57371,32.59914]],[[-115.57375,32.6459],[-115.57382,32.63492]],[[-115.57393,32.62375],[-115.5734,32.63423],[-115.57382,32.63492]],[[-115.57379,32.61386],[-115.57395,32.62006]],[[-115.56839,32.64655],[-115.57353,32.64621]],[[-115.57372,32.5995],[-115.57378,32.61378]]]}},{"type":"Feature","properties":{"nombre":"Boulevard Anillo Periférico","l":0.0229},"geometry":{"type":"MultiLineString","coordinates":[[[-115.34932,32.59737],[-115.34645,32.59831],[-115.34571,32.59939],[-115.34575,32.60103]],[[-115.34604,32.6016],[-115.34615,32.5989],[-115.34873,32.59765]],[[-115.34623,32.60694],[-115.34643,32.61425]],[[-115.34653,32.61426],[-115.34647,32.6102]]]}},{"type":"Feature","properties":{"nombre":"Avenida Lombardo Toledano","l":0.0169},"geometry":{"type":"MultiLineString","coordinates":[[[-115.47274,32.61359],[-115.47284,32.60675]],[[-115.4728,32.6043],[-115.47213,32.59865]],[[-115.47261,32.60887],[-115.47259,32.61322]]]}},{"type":"Feature","properties":{"nombre":"Avenida República de Brasil","l":0.0541},"geometry":{"type":"MultiLineString","coordinates":[[[-115.40138,32.66946],[-115.39315,32.67]],[[-115.42015,32.66811],[-115.43388,32.66734]],[[-115.39322,32.67012],[-115.40138,32.66946]],[[-115.40138,32.66946],[-115.40672,32.6691]],[[-115.43388,32.66734],[-115.45244,32.66601]]]}},{"type":"Feature","properties":{"nombre":"Carretera Mexicali-Estación Coahuila","l":0.0471},"geometry":{"type":"MultiLineString","coordinates":[[[-115.34993,32.64477],[-115.35011,32.651]],[[-115.34727,32.62996],[-115.34651,32.61524]],[[-115.34958,32.64134],[-115.34817,32.63443]],[[-115.34816,32.63439],[-115.34728,32.63003]],[[-115.35018,32.64956],[-115.34963,32.64152]],[[-115.35577,32.65285],[-115.35138,32.65265],[-115.35022,32.65076]]]}},{"type":"Feature","properties":{"nombre":"Calle Manuel Gómez Morín","l":0.0421},"geometry":{"type":"MultiLineString","coordinates":[[[-115.47746,32.59501],[-115.4727,32.59431],[-115.46846,32.59531]],[[-115.46783,32.59552],[-115.45841,32.59902]],[[-115.46794,32.59575],[-115.47223,32.59466],[-115.47592,32.59484]],[[-115.45887,32.59911],[-115.46397,32.59727]],[[-115.50251,32.59533],[-115.4974,32.59535]],[[-115.46397,32.59727],[-115.46794,32.59575]]]}},{"type":"Feature","properties":{"nombre":"Calzada Manuel Gómez Morín Poniente","l":0.0166},"geometry":{"type":"MultiLineString","coordinates":[[[-115.53323,32.62185],[-115.5335,32.63002]],[[-115.53373,32.63802],[-115.53354,32.64237]],[[-115.53397,32.63075],[-115.53347,32.62667]]]}},{"type":"Feature","properties":{"nombre":"Avenida Santa Isabel","l":0.0457},"geometry":{"type":"MultiLineString","coordinates":[[[-115.52269,32.64672],[-115.55871,32.64653]],[[-115.55871,32.64653],[-115.56839,32.64655]]]}},{"type":"Feature","properties":{"nombre":"Avenida Ignacio Zaragoza","l":0.0436},"geometry":{"type":"MultiLineString","coordinates":[[[-115.34963,32.57275],[-115.3599,32.55744]],[[-115.35997,32.55731],[-115.36382,32.54652],[-115.35732,32.53445]]]}},{"type":"Feature","properties":{"nombre":"East Cole Boulevard","l":0.0421},"geometry":{"type":"MultiLineString","coordinates":[[[-115.4554,32.69351],[-115.45656,32.694],[-115.46419,32.69403]],[[-115.47392,32.69388],[-115.49937,32.69399]],[[-115.47392,32.69388],[-115.4662,32.69388]]]}},{"type":"Feature","properties":{"nombre":"Boulevard General Santiago Vidaurri","l":0.0317},"geometry":{"type":"MultiLineString","coordinates":[[[-115.44972,32.58917],[-115.44135,32.58716]],[[-115.44507,32.58817],[-115.44964,32.58928]],[[-115.44071,32.58701],[-115.43488,32.58559]],[[-115.43178,32.58495],[-115.4438,32.58789]]]}},{"type":"Feature","properties":{"nombre":"Imperial Avenue","l":0.0396},"geometry":{"type":"MultiLineString","coordinates":[[[-115.49937,32.69399],[-115.49878,32.679]],[[-115.49867,32.67753],[-115.49869,32.66774]],[[-115.49862,32.67915],[-115.49913,32.69399]]]}},{"type":"Feature","properties":{"nombre":"Avenida Colón","l":0.0323},"geometry":{"type":"MultiLineString","coordinates":[[[-115.53309,32.66201],[-115.50088,32.66441]]]}},{"type":"Feature","properties":{"nombre":"Avenida Francisco I. Madero","l":0.0419},"geometry":{"type":"MultiLineString","coordinates":[[[-115.49448,32.6643],[-115.46017,32.66677]],[[-115.46017,32.66677],[-115.45265,32.66734]]]}},{"type":"Feature","properties":{"nombre":"Avenida República de Argentina","l":0.0413},"geometry":{"type":"MultiLineString","coordinates":[[[-115.43402,32.66867],[-115.41125,32.67034]],[[-115.45245,32.66735],[-115.43402,32.66867]]]}},{"type":"Feature","properties":{"nombre":"Avenida Reforma","l":0.0344},"geometry":{"type":"MultiLineString","coordinates":[[[-115.45261,32.666],[-115.4869,32.66349]]]}},{"type":"Feature","properties":{"nombre":"Ramal a Aeropuerto de Mexicali","l":0.0322},"geometry":{"type":"MultiLineString","coordinates":[[[-115.35577,32.65285],[-115.35179,32.65236]],[[-115.32066,32.64561],[-115.34809,32.65231]]]}},{"type":"Feature","properties":{"nombre":"Calzada Justo Sierra","l":0.0236},"geometry":{"type":"MultiLineString","coordinates":[[[-115.4526,32.66243],[-115.45257,32.65722]],[[-115.45239,32.64843],[-115.45243,32.65702]],[[-115.45258,32.668],[-115.4526,32.6629]],[[-115.45243,32.65724],[-115.45245,32.6619]]]}},{"type":"Feature","properties":{"nombre":"Carretera Sonoita - Mexicali","l":0.0268},"geometry":{"type":"MultiLineString","coordinates":[[[-115.32395,32.56455],[-115.34536,32.57227]],[[-115.34536,32.57227],[-115.34919,32.57351]]]}},{"type":"Feature","properties":{"nombre":"Calzada Francisco López Montejano","l":0.0246},"geometry":{"type":"MultiLineString","coordinates":[[[-115.45265,32.64529],[-115.4524,32.63517]],[[-115.4524,32.63621],[-115.45246,32.64112]],[[-115.4524,32.63517],[-115.45232,32.62817],[-115.45174,32.6257]]]}},{"type":"Feature","properties":{"nombre":"Eje Central","l":0.0261},"geometry":{"type":"MultiLineString","coordinates":[[[-115.49034,32.62087],[-115.49237,32.61822],[-115.49361,32.6151],[-115.49342,32.61338]],[[-115.49326,32.61338],[-115.49349,32.61503],[-115.49227,32.61812],[-115.49027,32.62058]],[[-115.48716,32.6255],[-115.48414,32.62974]],[[-115.48457,32.62916],[-115.48709,32.62569]]]}}]}